[
    {
        "CCSDS_OMM_VERS": "3.0",
        "COMMENT": "GENERATED VIA SPACE-TRACK.ORG API",
        "CREATION_DATE": "2025-04-12T22:09:39",
        "ORIGINATOR": "18 SPCS",
        "OBJECT_NAME": "BEIDOU 3M14",
        "OBJECT_ID": "2018-072B",
        "CENTER_NAME": "EARTH",
        "REF_FRAME": "TEME",
        "TIME_SYSTEM": "UTC",
        "MEAN_ELEMENT_THEORY": "SGP4",
        "EPOCH": "2025-04-12T05:26:23.513856",
        "MEAN_MOTION": "1.86231391",
        "ECCENTRICITY": "0.00067840",
        "INCLINATION": "56.2486",
        "RA_OF_ASC_NODE": "76.9161",
        "ARG_OF_PERICENTER": "329.4482",
        "MEAN_ANOMALY": "30.4894",
        "EPHEMERIS_TYPE": "0",
        "CLASSIFICATION_TYPE": "U",
        "NORAD_CAT_ID": "43623",
        "ELEMENT_SET_NO": "999",
        "REV_AT_EPOCH": "4462",
        "BSTAR": "0.00000000000000",
        "MEAN_MOTION_DOT": "-0.00000015",
        "MEAN_MOTION_DDOT": "0.0000000000000",
        "SEMIMAJOR_AXIS": "27906.150",
        "PERIOD": "773.232",
        "APOAPSIS": "21546.946",
        "PERIAPSIS": "21509.083",
        "OBJECT_TYPE": "PAYLOAD",
        "RCS_SIZE": "LARGE",
        "COUNTRY_CODE": "PRC",
        "LAUNCH_DATE": "2018-09-19",
        "SITE": "XSC",
        "DECAY_DATE": null,
        "FILE": "4699941",
        "GP_ID": "285447309",
        "TLE_LINE0": "0 BEIDOU 3M14",
        "TLE_LINE1": "1 43623U 18072B   25102.22666104 -.00000015  00000-0  00000-0 0  9990",
        "TLE_LINE2": "2 43623  56.2486  76.9161 0006784 329.4482  30.4894  1.86231391 44626"
    }
]